IRIDIUM 36 [-]          
1 24967U 97056C   24059.15278990  .00000751  00000+0  24853-3 0  9993
2 24967  86.4010  12.4577 0002382  87.8410 272.3060 14.36650964383994
IRIDIUM 39 [-]          
1 25042U 97069D   24059.46711694  .00001001  00000+0  26496-3 0  9993
2 25042  86.3883  54.4885 0020654  90.4532 269.9038 14.47716358380504
IRIDIUM 38 [-]          
1 25043U 97069E   24059.12489773  .00000589  00000+0  19188-3 0  9997
2 25043  86.3904  72.9071 0001443 158.0397 202.0863 14.37109451377965
IRIDIUM 42 [-]          
1 25077U 97077A   24059.53585854  .00000510  00000+0  17077-3 0  9994
2 25077  86.3905  78.3293 0001820 104.6200 255.5198 14.35404330373083
IRIDIUM 44 [-]          
1 25078U 97077B   24059.50981016  .00000647  00000+0  20238-3 0  9996
2 25078  86.3910  61.5251 0003593 115.6670 244.4900 14.39224993375438
IRIDIUM 45 [-]          
1 25104U 97082A   24059.52214151  .00009797  00000+0  59346-3 0  9990
2 25104  86.3699 273.6075 0166919 277.8102  80.4209 14.99443109380653
IRIDIUM 24 [-]          
1 25105U 97082B   24059.10793783  .00000540  00000+0  16176-3 0  9999
2 25105  86.3870 281.4947 0010630 196.9243 163.1604 14.40999872375027
IRIDIUM 51 [-]          
1 25262U 98018A   24059.11325839  .00012041  00000+0  61510-3 0  9998
2 25262  86.3907 283.9468 0151399 226.7802 132.0712 15.07022938375038
